NORAD_CAT_ID,OBJECT_NAME,OBJECT_TYPE,EPOCH,MEAN_MOTION,ECCENTRICITY,INCLINATION,RA_OF_ASC_NODE,ARG_OF_PERICENTER,MEAN_ANOMALY,BSTAR,MEAN_MOTION_DOT,MEAN_MOTION_DDOT,TLE_LINE0,TLE_LINE1,TLE_LINE2,SEMIMAJOR_AXIS,PERIOD,APOGEE,PERIGEE,DECAYED
54006.0,STARLINK-5096,PAYLOAD,2024-04-11 05:08:52,15.08835587,0.0001408,53.2161,104.7801,88.0563,272.0591,1.8453e-05,6e-08,0.0,0 STARLINK-5096,1 54006U 22125AU  24102.21450013  .00000006  00000-0  18453-4 0  9993,2 54006  53.2161 104.7801 0001408  88.0563 272.0591 15.08835587 84221,6917.894,95.438,540.733,538.785,0.0
54006.0,STARLINK-5096,PAYLOAD,2024-04-11 06:44:15,15.08831737,0.0001373,53.2164,104.4812,96.2062,263.9087,0.00013994,1.939e-05,0.0,0 STARLINK-5096,1 54006U 22125AU  24102.28073967  .00001939  00000-0  13994-3 0  9999,2 54006  53.2164 104.4812 0001373  96.2062 263.9087 15.08831737 84175,6917.906,95.438,540.72,538.821,0.0
54006.0,STARLINK-5096,PAYLOAD,2024-04-12 09:45:49,15.08834806,0.000154,53.2171,99.4252,100.7129,259.4037,-1.4663e-05,-5.21e-06,0.0,0 STARLINK-5096,1 54006U 22125AU  24103.40682302 -.00000521  00000-0 -14663-4 0  9996,2 54006  53.2171  99.4252 0001540 100.7129 259.4037 15.08834806 84406,6917.896,95.438,540.827,538.696,0.0
54006.0,STARLINK-5096,PAYLOAD,2024-04-13 04:50:26,15.08840813,0.000143,53.217,95.858,98.512,261.6034,8.3483e-05,1.041e-05,0.0,0 STARLINK-5096,1 54006U 22125AU  24104.20169758  .00001041  00000-0  83483-4 0  9992,2 54006  53.2170  95.8580 0001430  98.5120 261.6034 15.08840813 84522,6917.878,95.438,540.732,538.754,0.0
54006.0,STARLINK-5096,PAYLOAD,2024-04-14 04:41:14,15.08835175,0.0001328,53.217,91.3985,87.1184,272.996,2.9274e-05,1.78e-06,0.0,0 STARLINK-5096,1 54006U 22125AU  24105.19530650  .00000178  00000-0  29274-4 0  9992,2 54006  53.2170  91.3985 0001328  87.1184 272.9960 15.08835175 84676,6917.895,95.438,540.679,538.841,0.0
54006.0,STARLINK-5096,PAYLOAD,2024-04-15 07:42:47,15.08846031,0.0001496,53.2179,86.3424,95.3485,264.7678,7.9183e-05,9.73e-06,0.0,0 STARLINK-5096,1 54006U 22125AU  24106.32138056  .00000973  00000-0  79183-4 0  9999,2 54006  53.2179  86.3424 0001496  95.3485 264.7678 15.08846031 84845,6917.862,95.437,540.762,538.692,0.0
54006.0,STARLINK-5096,PAYLOAD,2024-04-16 04:22:48,15.08838324,0.0001686,53.2188,82.4767,85.5257,274.5928,8.1775e-05,1.014e-05,0.0,0 STARLINK-5096,1 54006U 22125AU  24107.18250826  .00001014  00000-0  81775-4 0  9991,2 54006  53.2188  82.4767 0001686  85.5257 274.5928 15.08838324 84978,6917.886,95.438,540.917,538.584,0.0
54006.0,STARLINK-5096,PAYLOAD,2024-04-16 07:33:34,15.08843866,0.0001619,53.2182,81.8798,88.4663,271.6515,0.00013547,1.869e-05,0.0,0 STARLINK-5096,1 54006U 22125AU  24107.31498308  .00001869  00000-0  13547-3 0  9994,2 54006  53.2182  81.8798 0001619  88.4663 271.6515 15.08843866 84931,6917.869,95.437,540.854,538.614,0.0
54006.0,STARLINK-5096,PAYLOAD,2024-04-16 15:30:30,15.0884464,0.0001575,53.2187,80.3948,89.5825,270.5348,0.00012645,1.725e-05,0.0,0 STARLINK-5096,1 54006U 22125AU  24107.64618284  .00001725  00000-0  12645-3 0  9996,2 54006  53.2187  80.3948 0001575  89.5825 270.5348 15.08844640 84988,6917.866,95.437,540.821,538.642,0.0
54006.0,STARLINK-5096,PAYLOAD,2024-04-17 04:13:34,15.08858733,0.000171,53.2183,78.0171,87.5442,272.5745,0.00015945,2.252e-05,0.0,0 STARLINK-5096,1 54006U 22125AU  24108.17609218  .00002252  00000-0  15945-3 0  9994,2 54006  53.2183  78.0171 0001710  87.5442 272.5745 15.08858733 85128,6917.823,95.436,540.871,538.505,0.0
54006.0,STARLINK-5096,PAYLOAD,2024-04-17 07:24:20,15.08863721,0.0001531,53.2172,77.4184,102.4022,257.7141,0.00031063,4.662e-05,0.0,0 STARLINK-5096,1 54006U 22125AU  24108.30856973  .00004662  00000-0  31063-3 0  9997,2 54006  53.2172  77.4184 0001531 102.4022 257.7141 15.08863721 85088,6917.808,95.436,540.732,538.614,0.0
54006.0,STARLINK-5096,PAYLOAD,2024-04-18 04:04:22,15.08831569,0.0001475,53.2171,73.5563,98.6528,261.4631,-0.00011013,-2.04e-05,0.0,0 STARLINK-5096,1 54006U 22125AU  24109.16970997 -.00002040  00000-0 -11013-3 0  9998,2 54006  53.2171  73.5563 0001475  98.6528 261.4631 15.08831569 85271,6917.906,95.438,540.792,538.751,0.0
54006.0,STARLINK-5096,PAYLOAD,2024-04-18 07:15:09,15.08832503,0.0001424,53.2171,72.9589,100.3444,259.7709,-7.3981e-05,-1.465e-05,0.0,0 STARLINK-5096,1 54006U 22125AU  24109.30218994 -.00001465  00000-0 -73981-4 0  9999,2 54006  53.2171  72.9589 0001424 100.3444 259.7709 15.08832503 85235,6917.903,95.438,540.753,538.783,0.0
54006.0,STARLINK-5096,PAYLOAD,2024-04-19 02:19:46,15.08840621,0.000145,53.2164,69.3914,94.2241,265.8917,0.0002071,3.01e-05,0.0,0 STARLINK-5096,1 54006U 22125AU  24110.09707032  .00003010  00000-0  20710-3 0  9990,2 54006  53.2164  69.3914 0001450  94.2241 265.8917 15.08840621 85413,6917.878,95.438,540.747,538.74,0.0
54006.0,STARLINK-5096,PAYLOAD,2024-04-19 07:05:56,15.08845995,0.0001407,53.2165,68.4965,111.2707,248.8435,0.00033475,5.044e-05,0.0,0 STARLINK-5096,1 54006U 22125AU  24110.29578809  .00005044  00000-0  33475-3 0  9991,2 54006  53.2165  68.4965 0001407 111.2707 248.8435 15.08845995 85380,6917.862,95.437,540.7,538.754,0.0
54006.0,STARLINK-5096,PAYLOAD,2024-04-20 03:45:56,15.08873533,0.0001297,53.2167,64.6308,82.0733,278.0407,0.00098559,0.00015447,0.0,0 STARLINK-5096,1 54006U 22125AU  24111.15690252  .00015447  00000-0  98559-3 0  9996,2 54006  53.2167  64.6308 0001297  82.0733 278.0407 15.08873533 85576,6917.778,95.435,540.54,538.746,0.0
54006.0,STARLINK-5096,PAYLOAD,2024-04-20 06:56:42,15.0887881,0.0001327,53.217,64.0371,88.4107,271.7037,0.0010105,0.00015848,0.0,0 STARLINK-5096,1 54006U 22125AU  24111.28937886  .00015848  00000-0  10105-2 0  9992,2 54006  53.2170  64.0371 0001327  88.4107 271.7037 15.08878810 85531,6917.762,95.435,540.545,538.709,0.0
54006.0,STARLINK-5096,PAYLOAD,2024-04-20 19:39:49,15.08806694,0.0001545,53.2179,61.6559,110.2799,249.8359,-0.000809,-0.00013128,0.0,0 STARLINK-5096,1 54006U 22125AU  24111.81931976 -.00013128  00000-0 -80900-3 0  9997,2 54006  53.2179  61.6559 0001545 110.2799 249.8359 15.08806694 85673,6917.982,95.44,540.916,538.778,0.0
54006.0,STARLINK-5096,PAYLOAD,2024-04-20 21:15:12,15.08812321,0.0002192,53.2177,61.36,115.8748,244.247,-0.00065662,-0.00010716,0.0,0 STARLINK-5096,1 54006U 22125AU  24111.88555865 -.00010716  00000-0 -65662-3 0  9991,2 54006  53.2177  61.3600 0002192 115.8748 244.2470 15.08812321 85621,6917.965,95.439,541.346,538.314,0.0
54006.0,STARLINK-5096,PAYLOAD,2024-04-21 03:36:45,15.08809978,0.0001928,53.2178,60.1712,117.4775,242.6414,-0.00041303,-6.85e-05,0.0,0 STARLINK-5096,1 54006U 22125AU  24112.15052409 -.00006850  00000-0 -41303-3 0  9998,2 54006  53.2178  60.1712 0001928 117.4775 242.6414 15.08809978 85722,6917.972,95.439,541.171,538.503,0.0
54006.0,STARLINK-5096,PAYLOAD,2024-04-22 01:52:08,15.08845394,0.0002328,53.2177,56.0101,123.6292,236.4922,0.0009894,0.00015496,0.0,0 STARLINK-5096,1 54006U 22125AU  24113.07788100  .00015496  00000-0  98940-3 0  9997,2 54006  53.2177  56.0101 0002328 123.6292 236.4922 15.08845394 85867,6917.864,95.437,541.339,538.118,0.0
54006.0,STARLINK-5096,PAYLOAD,2024-04-22 05:02:55,15.08868929,0.0001831,53.2181,55.4138,111.4519,248.6668,0.0017273,0.00027331,0.0,0 STARLINK-5096,1 54006U 22125AU  24113.21035924  .00027331  00000-0  17273-2 0  9992,2 54006  53.2181  55.4138 0001831 111.4519 248.6668 15.08868929 85883,6917.792,95.436,540.924,538.39,0.0
54006.0,STARLINK-5096,PAYLOAD,2024-04-22 19:21:23,15.08844972,0.000161,53.218,52.7385,139.5227,220.5886,0.00010245,1.343e-05,0.0,0 STARLINK-5096,1 54006U 22125AU  24113.80652135  .00001343  00000-0  10245-3 0  9994,2 54006  53.2180  52.7385 0001610 139.5227 220.5886 15.08844972 85971,6917.865,95.437,540.844,538.616,0.0
54006.0,STARLINK-5096,PAYLOAD,2024-04-23 04:53:41,15.08852878,0.0001377,53.2169,50.9547,128.8872,231.2244,0.0013313,0.00020971,0.0,0 STARLINK-5096,1 54006U 22125AU  24114.20395798  .00020971  00000-0  13313-2 0  9994,2 54006  53.2169  50.9547 0001377 128.8872 231.2244 15.08852878 86034,6917.841,95.437,540.659,538.753,0.0
54006.0,STARLINK-5096,PAYLOAD,2024-04-24 04:44:28,15.08867038,0.000158,53.219,46.492,91.1223,268.995,0.0012963,0.00020418,0.0,0 STARLINK-5096,1 54006U 22125AU  24115.19755695  .00020418  00000-0  12963-2 0  9995,2 54006  53.2190  46.4920 0001580  91.1223 268.9950 15.08867038 86182,6917.798,95.436,540.756,538.57,0.0
54006.0,STARLINK-5096,PAYLOAD,2024-04-25 04:35:16,15.08829538,0.0002198,53.2175,42.0392,44.286,315.8308,8.0133e-05,9.87e-06,0.0,0 STARLINK-5096,1 54006U 22125AU  24116.19116880  .00000987  00000-0  80133-4 0  9998,2 54006  53.2175  42.0392 0002198  44.2860 315.8308 15.08829538 86331,6917.912,95.438,541.298,538.257,0.0
54006.0,STARLINK-5096,PAYLOAD,2024-04-25 22:04:31,15.08836426,0.0001449,53.2162,38.7733,68.1462,291.9684,0.00032544,4.895e-05,0.0,0 STARLINK-5096,1 54006U 22125AU  24116.91981044  .00004895  00000-0  32544-3 0  9994,2 54006  53.2162  38.7733 0001449  68.1462 291.9684 15.08836426 86389,6917.891,95.438,540.759,538.754,0.0
54006.0,STARLINK-5096,PAYLOAD,2024-04-26 04:26:03,15.0886158,0.0001015,53.2187,37.5711,109.6098,250.5004,0.00081384,0.00012696,0.0,0 STARLINK-5096,1 54006U 22125AU  24117.18475790  .00012696  00000-0  81384-3 0  9994,2 54006  53.2187  37.5711 0001015 109.6098 250.5004 15.08861580 86481,6917.814,95.436,540.382,538.977,0.0
54006.0,STARLINK-5096,PAYLOAD,2024-04-27 04:16:49,15.08867549,0.0001229,53.2177,33.1136,76.657,283.4559,0.00099,0.00015515,0.0,0 STARLINK-5096,1 54006U 22125AU  24118.17835431  .00015515  00000-0  99000-3 0  9993,2 54006  53.2177  33.1136 0001229  76.6570 283.4559 15.08867549 86636,6917.796,95.436,540.511,538.811,0.0
54006.0,STARLINK-5096,PAYLOAD,2024-04-27 18:35:18,15.08829652,0.0001004,53.2167,30.438,105.6266,254.4837,-5.8749e-05,-1.222e-05,0.0,0 STARLINK-5096,1 54006U 22125AU  24118.77451972 -.00001222  00000-0 -58749-4 0  9991,2 54006  53.2167  30.4380 0001004 105.6266 254.4837 15.08829652 86722,6917.912,95.438,540.472,539.082,0.0
